[{"OBJECT_NAME":"ONEWEB-0504","OBJECT_ID":"2022-138K","EPOCH":"2026-03-09T17:34:43.675680","MEAN_MOTION":13.19725454,"ECCENTRICITY":0.00015499,"INCLINATION":87.923,"RA_OF_ASC_NODE":324.7789,"ARG_OF_PERICENTER":87.5252,"MEAN_ANOMALY":272.6058,"EPHEMERIS_TYPE":0,"CLASSIFICATION_TYPE":"U","NORAD_CAT_ID":54122,"ELEMENT_SET_NO":999,"REV_AT_EPOCH":16371,"BSTAR":-0.00016984146,"MEAN_MOTION_DOT":-5.5e-7,"MEAN_MOTION_DDOT":0},{"OBJECT_NAME":"DELTA 1 DEB","OBJECT_ID":"1975-052MN","EPOCH":"2026-03-08T16:41:22.952256","MEAN_MOTION":13.30821048,"ECCENTRICITY":0.00680262,"INCLINATION":99.765,"RA_OF_ASC_NODE":217.5591,"ARG_OF_PERICENTER":234.866,"MEAN_ANOMALY":140.1754,"EPHEMERIS_TYPE":0,"CLASSIFICATION_TYPE":"U","NORAD_CAT_ID":42653,"ELEMENT_SET_NO":999,"REV_AT_EPOCH":59713,"BSTAR":0.00012393727,"MEAN_MOTION_DOT":1.7e-7,"MEAN_MOTION_DDOT":0}]
